IRIDIUM 33              
1 24946U 97051C   26065.30934082  .00000425  00000+0  14213-3 0  9999
2 24946  86.3877  33.1167 0006206 313.8011  46.2672 14.35099004490339
IRIDIUM 33 DEB          
1 33773U 97051L   26065.25389968  .00001597  00000+0  46659-3 0  9998
2 33773  86.4031  25.1775 0009080 231.5556 128.4831 14.43470438895522
IRIDIUM 33 DEB          
1 33775U 97051N   26065.29574911  .00002124  00000+0  64484-3 0  9991
2 33775  86.3671  13.8675 0010789 245.8657 245.1694 14.41744848893444
IRIDIUM 33 DEB          
1 33776U 97051P   26065.01161272  .00001101  00000+0  35478-3 0  9999
2 33776  86.4020  45.7724 0012379 288.2667 136.9512 14.38397566892792
IRIDIUM 33 DEB          
1 33777U 97051Q   26065.26817015  .00003884  00000+0  87245-3 0  9999
2 33777  86.3835 358.8497 0006719 358.6659   1.4530 14.56302962897499
IRIDIUM 33 DEB          
1 33850U 97051T   26065.26446267  .00001810  00000+0  54054-3 0  9997
2 33850  86.3467 354.2652 0008889 255.4248 266.7871 14.42473061893565
IRIDIUM 33 DEB          
1 33853U 97051W   26065.31095940  .00003084  00000+0  17381-2 0  9990
2 33853  85.9998 313.1687 0210338 340.5641 129.1059 13.99568217865143
IRIDIUM 33 DEB          
1 33860U 97051AD  26065.30015703  .00009608  00000+0  16337-2 0  9994
2 33860  86.3874 350.2131 0011597  56.8355  61.6910 14.68986715899484
IRIDIUM 33 DEB          
1 33862U 97051AF  26065.29814808  .00012324  00000+0  19317-2 0  9997
2 33862  86.4132   0.6220 0050504 134.6956  18.0709 14.71731321900516
IRIDIUM 33 DEB          
1 33866U 97051AK  26065.23251929  .00003746  00000+0  14742-2 0  9999
2 33866  86.2989  57.6806 0110698 253.8688 124.0361 14.25715906880000
IRIDIUM 33 DEB          
1 33870U 97051AP  26065.29753604  .00003792  00000+0  10493-2 0  9997
2 33870  86.3778  22.4170 0018164 266.4567 261.5997 14.46377486893441
IRIDIUM 33 DEB          
1 33881U 97051BA  26064.44889490  .00018798  00000+0  39275-2 0  9999
2 33881  86.3812  70.7148 0052790 256.6690 230.4684 14.58878105887059
IRIDIUM 33 DEB          
1 33884U 97051BD  26065.24435856  .00017214  00000+0  22578-2 0  9994
2 33884  86.3724 332.0653 0013708  28.3843 100.4581 14.80156591900814
IRIDIUM 33 DEB          
1 33886U 97051BF  26065.29329622  .00000863  00000+0  28945-3 0  9991
2 33886  86.3840  32.0347 0013354 342.2603 141.9257 14.36163587892512
IRIDIUM 33 DEB          
1 33887U 97051BG  26065.23666450  .00000597  00000+0  19366-3 0  9990
2 33887  86.3081 327.4334 0005529 348.1047 129.3787 14.37320804893640
IRIDIUM 33 DEB          
1 33953U 97051BN  26064.87635751  .00005968  00000+0  13398-2 0  9998
2 33953  86.3885  17.6603 0015642 169.2152 244.6726 14.56346206895134
