[{"OBJECT_NAME":"IRIDIUM 33","OBJECT_ID":"1997-051C","EPOCH":"2026-03-06T07:25:27.046848","MEAN_MOTION":14.35099004,"ECCENTRICITY":0.00062063,"INCLINATION":86.3877,"RA_OF_ASC_NODE":33.1167,"ARG_OF_PERICENTER":313.8011,"MEAN_ANOMALY":46.2672,"EPHEMERIS_TYPE":0,"CLASSIFICATION_TYPE":"U","NORAD_CAT_ID":24946,"ELEMENT_SET_NO":999,"REV_AT_EPOCH":49033,"BSTAR":0.0001421344,"MEAN_MOTION_DOT":4.25e-6,"MEAN_MOTION_DDOT":0},{"OBJECT_NAME":"IRIDIUM 33 DEB","OBJECT_ID":"1997-051L","EPOCH":"2026-03-06T06:05:36.932352","MEAN_MOTION":14.43470438,"ECCENTRICITY":0.000908,"INCLINATION":86.4031,"RA_OF_ASC_NODE":25.1775,"ARG_OF_PERICENTER":231.5556,"MEAN_ANOMALY":128.4831,"EPHEMERIS_TYPE":0,"CLASSIFICATION_TYPE":"U","NORAD_CAT_ID":33773,"ELEMENT_SET_NO":999,"REV_AT_EPOCH":89552,"BSTAR":0.00046659028,"MEAN_MOTION_DOT":1.597e-5,"MEAN_MOTION_DDOT":0},{"OBJECT_NAME":"IRIDIUM 33 DEB","OBJECT_ID":"1997-051N","EPOCH":"2026-03-06T07:05:52.723104","MEAN_MOTION":14.41744848,"ECCENTRICITY":0.0010789,"INCLINATION":86.3671,"RA_OF_ASC_NODE":13.8675,"ARG_OF_PERICENTER":245.8657,"MEAN_ANOMALY":245.1694,"EPHEMERIS_TYPE":0,"CLASSIFICATION_TYPE":"U","NORAD_CAT_ID":33775,"ELEMENT_SET_NO":999,"REV_AT_EPOCH":89344,"BSTAR":0.000644841,"MEAN_MOTION_DOT":2.124e-5,"MEAN_MOTION_DDOT":0},{"OBJECT_NAME":"IRIDIUM 33 DEB","OBJECT_ID":"1997-051P","EPOCH":"2026-03-06T00:16:43.339008","MEAN_MOTION":14.38397566,"ECCENTRICITY":0.0012379,"INCLINATION":86.402,"RA_OF_ASC_NODE":45.7724,"ARG_OF_PERICENTER":288.2667,"MEAN_ANOMALY":136.9512,"EPHEMERIS_TYPE":0,"CLASSIFICATION_TYPE":"U","NORAD_CAT_ID":33776,"ELEMENT_SET_NO":999,"REV_AT_EPOCH":89279,"BSTAR":0.00035478171,"MEAN_MOTION_DOT":1.101e-5,"MEAN_MOTION_DDOT":0},{"OBJECT_NAME":"IRIDIUM 33 DEB","OBJECT_ID":"1997-051Q","EPOCH":"2026-03-06T06:26:09.900960","MEAN_MOTION":14.56302962,"ECCENTRICITY":0.00067195,"INCLINATION":86.3835,"RA_OF_ASC_NODE":358.8497,"ARG_OF_PERICENTER":358.6659,"MEAN_ANOMALY":1.453,"EPHEMERIS_TYPE":0,"CLASSIFICATION_TYPE":"U","NORAD_CAT_ID":33777,"ELEMENT_SET_NO":999,"REV_AT_EPOCH":89749,"BSTAR":0.0008724495,"MEAN_MOTION_DOT":3.884e-5,"MEAN_MOTION_DDOT":0},{"OBJECT_NAME":"IRIDIUM 33 DEB","OBJECT_ID":"1997-051T","EPOCH":"2026-03-06T06:20:49.574688","MEAN_MOTION":14.42473061,"ECCENTRICITY":0.00088894,"INCLINATION":86.3467,"RA_OF_ASC_NODE":354.2652,"ARG_OF_PERICENTER":255.4248,"MEAN_ANOMALY":266.7871,"EPHEMERIS_TYPE":0,"CLASSIFICATION_TYPE":"U","NORAD_CAT_ID":33850,"ELEMENT_SET_NO":999,"REV_AT_EPOCH":89356,"BSTAR":0.00054053823,"MEAN_MOTION_DOT":1.81e-5,"MEAN_MOTION_DDOT":0},{"OBJECT_NAME":"IRIDIUM 33 DEB","OBJECT_ID":"1997-051W","EPOCH":"2026-03-06T07:27:46.892160","MEAN_MOTION":13.99568217,"ECCENTRICITY":0.02103383,"INCLINATION":85.9998,"RA_OF_ASC_NODE":313.1687,"ARG_OF_PERICENTER":340.5641,"MEAN_ANOMALY":129.1059,"EPHEMERIS_TYPE":0,"CLASSIFICATION_TYPE":"U","NORAD_CAT_ID":33853,"ELEMENT_SET_NO":999,"REV_AT_EPOCH":86514,"BSTAR":0.0017380601,"MEAN_MOTION_DOT":3.084e-5,"MEAN_MOTION_DDOT":0},{"OBJECT_NAME":"IRIDIUM 33 DEB","OBJECT_ID":"1997-051AD","EPOCH":"2026-03-06T07:12:13.567392","MEAN_MOTION":14.68986715,"ECCENTRICITY":0.00115973,"INCLINATION":86.3874,"RA_OF_ASC_NODE":350.2131,"ARG_OF_PERICENTER":56.8355,"MEAN_ANOMALY":61.691,"EPHEMERIS_TYPE":0,"CLASSIFICATION_TYPE":"U","NORAD_CAT_ID":33860,"ELEMENT_SET_NO":999,"REV_AT_EPOCH":89948,"BSTAR":0.0016337218,"MEAN_MOTION_DOT":9.608e-5,"MEAN_MOTION_DDOT":0},{"OBJECT_NAME":"IRIDIUM 33 DEB","OBJECT_ID":"1997-051AF","EPOCH":"2026-03-06T07:09:19.994112","MEAN_MOTION":14.71731321,"ECCENTRICITY":0.00505043,"INCLINATION":86.4132,"RA_OF_ASC_NODE":0.622,"ARG_OF_PERICENTER":134.6956,"MEAN_ANOMALY":18.0709,"EPHEMERIS_TYPE":0,"CLASSIFICATION_TYPE":"U","NORAD_CAT_ID":33862,"ELEMENT_SET_NO":999,"REV_AT_EPOCH":90051,"BSTAR":0.0019316654,"MEAN_MOTION_DOT":0.00012324,"MEAN_MOTION_DDOT":0},{"OBJECT_NAME":"IRIDIUM 33 DEB","OBJECT_ID":"1997-051AK","EPOCH":"2026-03-06T05:34:49.666656","MEAN_MOTION":14.25715906,"ECCENTRICITY":0.01106985,"INCLINATION":86.2989,"RA_OF_ASC_NODE":57.6806,"ARG_OF_PERICENTER":253.8688,"MEAN_ANOMALY":124.0361,"EPHEMERIS_TYPE":0,"CLASSIFICATION_TYPE":"U","NORAD_CAT_ID":33866,"ELEMENT_SET_NO":999,"REV_AT_EPOCH":88000,"BSTAR":0.0014741977,"MEAN_MOTION_DOT":3.746e-5,"MEAN_MOTION_DDOT":0},{"OBJECT_NAME":"IRIDIUM 33 DEB","OBJECT_ID":"1997-051AP","EPOCH":"2026-03-06T07:08:27.113856","MEAN_MOTION":14.46377486,"ECCENTRICITY":0.00181641,"INCLINATION":86.3778,"RA_OF_ASC_NODE":22.417,"ARG_OF_PERICENTER":266.4567,"MEAN_ANOMALY":261.5997,"EPHEMERIS_TYPE":0,"CLASSIFICATION_TYPE":"U","NORAD_CAT_ID":33870,"ELEMENT_SET_NO":999,"REV_AT_EPOCH":89344,"BSTAR":0.0010493482,"MEAN_MOTION_DOT":3.792e-5,"MEAN_MOTION_DDOT":0},{"OBJECT_NAME":"IRIDIUM 33 DEB","OBJECT_ID":"1997-051BA","EPOCH":"2026-03-05T10:46:24.519360","MEAN_MOTION":14.58878105,"ECCENTRICITY":0.005279,"INCLINATION":86.3812,"RA_OF_ASC_NODE":70.7148,"ARG_OF_PERICENTER":256.669,"MEAN_ANOMALY":230.4684,"EPHEMERIS_TYPE":0,"CLASSIFICATION_TYPE":"U","NORAD_CAT_ID":33881,"ELEMENT_SET_NO":999,"REV_AT_EPOCH":88705,"BSTAR":0.0039275,"MEAN_MOTION_DOT":0.00018798,"MEAN_MOTION_DDOT":0},{"OBJECT_NAME":"IRIDIUM 33 DEB","OBJECT_ID":"1997-051BD","EPOCH":"2026-03-06T05:51:52.579584","MEAN_MOTION":14.80156591,"ECCENTRICITY":0.00137082,"INCLINATION":86.3724,"RA_OF_ASC_NODE":332.0653,"ARG_OF_PERICENTER":28.3843,"MEAN_ANOMALY":100.4581,"EPHEMERIS_TYPE":0,"CLASSIFICATION_TYPE":"U","NORAD_CAT_ID":33884,"ELEMENT_SET_NO":999,"REV_AT_EPOCH":90081,"BSTAR":0.0022577962,"MEAN_MOTION_DOT":0.00017214,"MEAN_MOTION_DDOT":0},{"OBJECT_NAME":"IRIDIUM 33 DEB","OBJECT_ID":"1997-051BF","EPOCH":"2026-03-06T07:02:20.793408","MEAN_MOTION":14.36163587,"ECCENTRICITY":0.00133545,"INCLINATION":86.384,"RA_OF_ASC_NODE":32.0347,"ARG_OF_PERICENTER":342.2603,"MEAN_ANOMALY":141.9257,"EPHEMERIS_TYPE":0,"CLASSIFICATION_TYPE":"U","NORAD_CAT_ID":33886,"ELEMENT_SET_NO":999,"REV_AT_EPOCH":89251,"BSTAR":0.00028945085,"MEAN_MOTION_DOT":8.63e-6,"MEAN_MOTION_DDOT":0},{"OBJECT_NAME":"IRIDIUM 33 DEB","OBJECT_ID":"1997-051BG","EPOCH":"2026-03-06T05:40:47.812800","MEAN_MOTION":14.37320804,"ECCENTRICITY":0.0005529,"INCLINATION":86.3081,"RA_OF_ASC_NODE":327.4334,"ARG_OF_PERICENTER":348.1047,"MEAN_ANOMALY":129.3787,"EPHEMERIS_TYPE":0,"CLASSIFICATION_TYPE":"U","NORAD_CAT_ID":33887,"ELEMENT_SET_NO":999,"REV_AT_EPOCH":89364,"BSTAR":0.00019366397,"MEAN_MOTION_DOT":5.97e-6,"MEAN_MOTION_DDOT":0},{"OBJECT_NAME":"IRIDIUM 33 DEB","OBJECT_ID":"1997-051BN","EPOCH":"2026-03-05T21:01:57.288864","MEAN_MOTION":14.56346206,"ECCENTRICITY":0.00156429,"INCLINATION":86.3885,"RA_OF_ASC_NODE":17.6603,"ARG_OF_PERICENTER":169.2152,"MEAN_ANOMALY":244.6726,"EPHEMERIS_TYPE":0,"CLASSIFICATION_TYPE":"U","NORAD_CAT_ID":33953,"ELEMENT_SET_NO":999,"REV_AT_EPOCH":89513,"BSTAR":0.0013398278,"MEAN_MOTION_DOT":5.968e-5,"MEAN_MOTION_DDOT":0}]
